YAOGAN 9A               
1 36413U 10009A   21113.18738297 -.00000066  00000-0  27704-4 0  9997
2 36413  63.3859 173.6590 0373636   9.8937  21.2190 13.45198354547057
YAOGAN 9B               
1 36414U 10009B   21112.58108342 -.00000062  00000-0  31364-4 0  9996
2 36414  63.3880 174.7670 0373395   9.3184 351.4503 13.45209986546996
YAOGAN 9C               
1 36415U 10009C   21112.87779824 -.00000083  00000-0  83890-5 0  9993
2 36415  63.3869 174.6582 0374183   9.6173 351.1763 13.45210492547004
ECHOSTAR 14             
1 36499U 10010A   21112.63047839 -.00000001  00000-0  00000-0 0  9992
2 36499   0.0145 243.9310 0002743 152.5473 282.5111  1.00271717 27698
CRYOSAT 2               
1 36508U 10013A   21112.91196537  .00000037  00000-0  84792-5 0  9990
2 36508  92.0176 182.5022 0004120 219.8091 140.2814 14.51907693585133
SES-1                   
1 36516U 10016A   21112.83971378 -.00000116  00000-0  00000-0 0  9991
2 36516   0.0501  74.7009 0002497 313.9821  23.7242  1.00271221 40173
COSMOS 2463             
1 36519U 10017A   21112.90455344  .00000021  00000-0  65921-5 0  9995
2 36519  82.9639 191.7014 0035007 311.3259  48.4885 13.71454528550147
ASTRA 3B                
1 36581U 10021A   21112.86457601  .00000135  00000-0  00000-0 0  9990
2 36581   0.0435   9.7658 0002780  22.0300 154.0661  1.00272728 40013
COMSATBW-2              
1 36582U 10021B   21112.92490591  .00000086  00000-0  00000-0 0  9998
2 36582   0.0177 205.1379 0002523 202.7955 149.3890  1.00270140 40092
NAVSTAR 65 (USA 213)    
1 36585U 10022A   21112.81668350  .00000004  00000-0  00000+0 0  9999
2 36585  55.0865 284.4761 0097399  54.3887 304.2654  2.00567601 79852
BADR-5                  
1 36592U 10025A   21112.88483616  .00000143  00000-0  00000-0 0  9992
2 36592   0.0204 151.0287 0002982 286.1106 118.5706  1.00274936 34357
SJ-12                   
1 36596U 10027A   21112.94858384 -.00000042  00000-0  14120-5 0  9995
2 36596  97.6838 101.9347 0012023   7.0490 353.0899 14.96943553592085
TANDEM-X                
1 36605U 10030A   21111.30426822 -.00000186  00000-0 -56782-5 0  9997
2 36605  97.4446 119.9193 0002007  79.6931  46.2825 15.19146477600775
COMS 1                  
1 36744U 10032A   21112.88542538 -.00000346  00000-0  00000-0 0  9994
2 36744   0.0664  92.5586 0000988 312.1668 253.3653  1.00270160 32222
ARABSAT-5A              
1 36745U 10032B   21112.87413605  .00000152  00000-0  00000-0 0  9990
2 36745   0.0683  41.8420 0003475  21.2774 133.1858  1.00271561 39784
ECHOSTAR 15             
1 36792U 10034A   21113.22514750 -.00000284  00000-0  00000+0 0  9993
2 36792   0.0280  71.1972 0002399 291.2304 228.4499  1.00276093 39536
CARTOSAT-2B             
1 36795U 10035A   21113.09175397 -.00001959  00000-0 -25990-3 0  9992
2 36795  97.8744 172.9131 0014067 155.3868 204.7893 14.78694317581949
AISSAT 1                
1 36797U 10035C   21112.72911917  .00000272  00000-0  37438-4 0  9995
2 36797  98.2112 276.8832 0012451  97.6551 262.6078 14.86475067583936
ALSAT 2A                
1 36798U 10035D   21113.14227627  .00000109  00000-0  27113-4 0  9999
2 36798  97.9211 163.1263 0001551  88.7209 271.4186 14.68222001577152
TISAT 1                 
1 36799U 10035E   21113.11212430  .00000494  00000-0  55256-4 0  9999
2 36799  98.2073 301.6868 0013015  40.4029 319.8153 14.91685924585283
BEIDOU 5                
1 36828U 10036A   21113.24541453 -.00000097  00000-0  00000+0 0  9999
2 36828  54.1713 180.1035 0110966 234.8316   4.0636  1.00278411 39351
NILESAT 201             
1 36830U 10037A   21112.85846948 -.00000059  00000-0  00000-0 0  9995
2 36830   0.0515 146.1671 0006054 260.5162 106.4974  1.00271646 39501
RASCOM-QAF 1R           
1 36831U 10037B   21112.86047591  .00000017  00000-0  00000+0 0  9996
2 36831   0.0224 127.7113 0004546 266.7752 129.2921  1.00271972 39420
YAOGAN 10               
1 36834U 10038A   21113.19493403  .00000112  00000-0  21275-4 0  9992
2 36834  97.9815 120.9383 0001794  81.8044 278.3380 14.81038810578574
AEHF-1 (USA 214)        
1 36868U 10039A   21112.86073762  .00000028  00000-0  00000-0 0  9990
2 36868   3.4893  92.6372 0005997 333.2718  99.0959  1.00269186 34793
TIANHUI 1               
1 36985U 10040A   21113.17189894  .00001291  00000-0  53724-4 0  9999
2 36985  97.7130 312.6849 0030688 337.0521 157.0489 15.25350920593057
COSMOS 2464 [GLONASS-M] 
1 37139U 10041C   21112.52431816  .00000014  00000-0  00000-0 0  9991
2 37139  64.0781 255.1069 0028313  13.6521 353.6356  2.13100715 82780
CHINASAT 6A (ZX 6A)     
1 37150U 10042A   21113.20594118 -.00000355  00000-0  00000+0 0  9994
2 37150   0.0563 111.0557 0002068  90.3611 209.2604  1.00271504 39047
COSMOS 2467             
1 37152U 10043A   21112.76987158  .00000006  00000-0 -30515-4 0  9999
2 37152  82.4594 161.8527 0000479  48.3194 311.7924 12.42901290481821
STRELA 3                
1 37153U 10043B   21112.69833689  .00000007  00000-0 -22227-4 0  9993
2 37153  82.4607 170.3889 0007033 198.0697 162.0132 12.40740539481101
COSMOS 2468             
1 37154U 10043C   21112.79469292  .00000016  00000-0  43359-4 0  9998
2 37154  82.4622 160.1534 0015902  93.2142 267.0755 12.43663493482078
QZS-1 (MICHIBIKI-1)     
1 37158U 10045A   21112.37956069 -.00000067  00000-0  00000-0 0  9990
2 37158  41.9061 139.2438 0754500 270.3298  78.4705  1.00281946 38866
YAOGAN 11               
1 37165U 10047A   21112.86507196  .00000179  00000-0  33582-4 0  9995
2 37165  98.2983 233.1425 0039824 132.8768 227.5796 14.76316110570071
ZHEDA PIXING 1B         
1 37166U 10047B   21113.15333735  .00000306  00000-0  45936-4 0  9993
2 37166  97.7115  98.1557 0023070 328.4684  31.5143 14.81060631571625
ZHEDA PIXING 1C         
1 37167U 10047C   21113.20093727  .00000324  00000-0  48307-4 0  9999
2 37167  97.7407  94.7083 0022548 328.2521  31.7333 14.80934091571591
SBSS (USA 216)          
1 37168U 10048A   21113.21175448  .00000080  00000-0  16815-4 0  9991
2 37168  97.8715 335.6104 0001757  59.5931  52.8939 14.81640339571523
SJ-6G                   
1 37179U 10051A   21113.22528887 -.00000224  00000-0 -15737-4 0  9991
2 37179  97.7208  97.9943 0014761  82.1974 278.0943 14.93836537574618
SJ-6H                   
1 37180U 10051B   21113.17341286  .00000246  00000-0  28699-4 0  9996
2 37180  97.7281  97.3134 0013494 100.5200 259.7558 14.93454637574521
XM-5                    
1 37185U 10053A   21113.21049481 -.00000207  00000-0  00000+0 0  9999
2 37185   0.0147 227.0170 0004969   4.2968 330.7725  1.00271774 38584
GLOBALSTAR M079         
1 37188U 10054A   21112.87425198 -.00000104  00000-0 -31514-5 0  9994
2 37188  52.0039  75.6911 0000477  85.2868 298.4999 12.62265838485046
GLOBALSTAR M074         
1 37189U 10054B   21113.21498635 -.00000109  00000-0 -30239-4 0  9997
2 37189  52.0018  74.2111 0000545  85.8140 287.8988 12.62264056485687
GLOBALSTAR M076         
1 37190U 10054C   21112.84607924 -.00000126  00000-0 -12208-3 0  9994
2 37190  52.0036  75.3657 0000180 161.3354 215.2758 12.62266291485287
GLOBALSTAR M077         
1 37191U 10054D   21112.92492493 -.00000110  00000-0 -36131-4 0  9992
2 37191  52.0096  31.5487 0000598  77.6261 357.2601 12.62267287485761
GLOBALSTAR M075         
1 37192U 10054E   21112.49569084 -.00000092  00000-0  64714-4 0  9992
2 37192  51.9927 119.5314 0000288 112.3603  51.1712 12.62265545484837
GLOBALSTAR M073         
1 37193U 10054F   21113.19802812 -.00000102  00000-0  10444-4 0  9993
2 37193  52.0085  30.0641 0000589  75.5882  39.9368 12.62266275486438
BSAT-3B                 
1 37207U 10056B   21113.08591008 -.00000352  00000-0  00000+0 0  9990
2 37207   0.0479 347.3530 0003070 356.3433   8.4281  1.00273363 38417
BEIDOU 6                
1 37210U 10057A   21112.89179360 -.00000114  00000-0  00000-0 0  9993
2 37210   0.7589  40.5559 0001923 173.5044 118.0756  1.00273367 38414
FENGYUN 3B              
1 37214U 10059A   21113.20296466  .00000007  00000-0  26953-4 0  9991
2 37214  99.0782 106.2381 0018016 108.4648 251.8485 14.15983443541513
COSMO-SKYMED 4          
1 37216U 10060A   21113.12753977  .00000041  00000-0  11675-4 0  9994
2 37216  97.8896 297.8024 0001618  77.7800 282.3586 14.82156911565991
SKYTERRA 1              
1 37218U 10061A   21113.20052284 -.00000118  00000-0  00000+0 0  9990
2 37218   2.1417  14.5803 0004018 359.4219 168.3467  1.00270533 38361
ZHONGXING-20A           
1 37234U 10064A   21112.81328130 -.00000350  00000-0  00000-0 0  9992
2 37234   1.6080  93.2548 0002681 329.8108 207.2439  1.00273121 38167
HYLAS 1                 
1 37237U 10065A   21112.88638498 -.00000285  00000-0  00000-0 0  9991
2 37237   0.8732  94.1897 0000682  80.2877 128.4828  1.00556097 38119
INTELSAT 17 (IS-17)     
1 37238U 10065B   21113.08842329 -.00000003  00000-0  00000+0 0  9992
2 37238   0.0225 163.7102 0002685 243.4629 261.9972  1.00271249 38053
BEIDOU 7                
1 37256U 10068A   21113.24786244 -.00000195  00000-0  00000+0 0  9998
2 37256  50.9519 294.6577 0083109 215.1144 270.7208  1.00272879 37937
EUTELSAT KA-SAT 9A      
1 37258U 10069A   21112.71816611  .00000060  00000-0  00000-0 0  9995
2 37258   0.0532 279.5247 0004405 177.5768  21.4155  1.00273918 25148
HISPASAT 30W-5          
1 37264U 10070A   21112.85393323 -.00000217  00000-0  00000-0 0  9994
2 37264   0.0468  97.8947 0004231 324.1873  66.4589  1.00272398 34326
KOREASAT 6              
1 37265U 10070B   21112.88307001 -.00000364  00000-0  00000-0 0  9999
2 37265   0.0122 243.8376 0001927 175.2805 225.9704  1.00270110 37900
COSMOS 2471 [GLONASS-K] 
1 37372U 11009A   21112.37625948 -.00000062  00000-0  00000-0 0  9993
2 37372  65.9284  17.4397 0013262 229.7704 235.6951  2.13081436 78996
BEIDOU 8                
1 37384U 11013A   21113.24974786 -.00000188  00000-0  00000+0 0  9993
2 37384  59.7046  58.4578 0052819 207.7504 154.7066  1.00269218 36811
